start=new Date('2022-08-04T00:00:00.000Z').valueOf();
sats=[{"MEAN_ANOMALY":"293.5480","COUNTRY_CODE":"US","DECAY_DATE":null,"BSTAR":"-0.00002835900000","MEAN_MOTION_DDOT":"0.0000000000000","REV_AT_EPOCH":"15083","RA_OF_ASC_NODE":"326.3650","EPHEMERIS_TYPE":"0","INCLINATION":"53.0558","MEAN_MOTION_DOT":"-0.00000704","REF_FRAME":"TEME","ECCENTRICITY":"0.00012710","LAUNCH_DATE":"2019-11-11","EPOCH":"2022-08-03T11:20:00.868992","ARG_OF_PERICENTER":"66.5642","RCS_SIZE":"LARGE","PERIAPSIS":"546.351","CENTER_NAME":"EARTH","TLE_LINE2":"2 44733  53.0558 326.3650 0001271  66.5642 293.5480 15.06394358150836","OBJECT_NAME":"STARLINK-1028","TLE_LINE1":"1 44733U 19074W   22215.47223228 -.00000704  00000-0 -28359-4 0  9998","CLASSIFICATION_TYPE":"U","OBJECT_TYPE":"PAYLOAD","GP_ID":"209468721","APOAPSIS":"548.111","TIME_SYSTEM":"UTC","MEAN_MOTION":"15.06394358","OBJECT_ID":"2019-074W","FILE":"3528220","ELEMENT_SET_NO":"999","MEAN_ELEMENT_THEORY":"SGP4","NORAD_CAT_ID":"44733","SITE":"AFETR","SEMIMAJOR_AXIS":"6925.366","PERIOD":"95.592"},{"RCS_SIZE":"LARGE","CENTER_NAME":"EARTH","PERIAPSIS":"546.206","TLE_LINE2":"2 44734  53.0541 246.6102 0001451  62.2675 297.8461 15.06401019151924","OBJECT_NAME":"STARLINK-1029","TLE_LINE1":"1 44734U 19074X   22215.42063473  .00000888  00000-0  78486-4 0  9995","CLASSIFICATION_TYPE":"U","OBJECT_TYPE":"PAYLOAD","GP_ID":"209468587","APOAPSIS":"548.215","MEAN_MOTION":"15.06401019","TIME_SYSTEM":"UTC","FILE":"3528220","OBJECT_ID":"2019-074X","ELEMENT_SET_NO":"999","MEAN_ELEMENT_THEORY":"SGP4","NORAD_CAT_ID":"44734","SITE":"AFETR","PERIOD":"95.592","SEMIMAJOR_AXIS":"6925.345","MEAN_ANOMALY":"297.8461","COUNTRY_CODE":"US","DECAY_DATE":null,"BSTAR":"0.00007848600000","MEAN_MOTION_DDOT":"0.0000000000000","REV_AT_EPOCH":"15192","RA_OF_ASC_NODE":"246.6102","EPHEMERIS_TYPE":"0","INCLINATION":"53.0541","MEAN_MOTION_DOT":"0.00000888","REF_FRAME":"TEME","ECCENTRICITY":"0.00014510","LAUNCH_DATE":"2019-11-11","EPOCH":"2022-08-03T10:05:42.840672","ARG_OF_PERICENTER":"62.2675"},{"DECAY_DATE":null,"BSTAR":"0.00005696400000","MEAN_MOTION_DDOT":"0.0000000000000","RA_OF_ASC_NODE":"346.3389","REV_AT_EPOCH":"15038","MEAN_ANOMALY":"281.6921","COUNTRY_CODE":"US","LAUNCH_DATE":"2019-11-11","EPOCH":"2022-08-03T11:33:16.785792","ARG_OF_PERICENTER":"78.4242","EPHEMERIS_TYPE":"0","INCLINATION":"53.0569","MEAN_MOTION_DOT":"0.00000567","REF_FRAME":"TEME","ECCENTRICITY":"0.00015500","TLE_LINE1":"1 44735U 19074Y   22215.48144428  .00000567  00000-0  56964-4 0  9993","CLASSIFICATION_TYPE":"U","OBJECT_TYPE":"PAYLOAD","GP_ID":"209492090","RCS_SIZE":"LARGE","PERIAPSIS":"546.106","CENTER_NAME":"EARTH","TLE_LINE2":"2 44735  53.0569 346.3389 0001550  78.4242 281.6921 15.06411264150383","OBJECT_NAME":"STARLINK-1030","PERIOD":"95.591","SEMIMAJOR_AXIS":"6925.314","TIME_SYSTEM":"UTC","APOAPSIS":"548.252","MEAN_MOTION":"15.06411264","ELEMENT_SET_NO":"999","FILE":"3528364","OBJECT_ID":"2019-074Y","MEAN_ELEMENT_THEORY":"SGP4","NORAD_CAT_ID":"44735","SITE":"AFETR"},{"ARG_OF_PERICENTER":"85.4316","LAUNCH_DATE":"2019-11-11","EPOCH":"2022-08-03T08:43:26.265216","ECCENTRICITY":"0.00012470","EPHEMERIS_TYPE":"0","INCLINATION":"53.0563","REF_FRAME":"TEME","MEAN_MOTION_DOT":"0.00000150","REV_AT_EPOCH":"15037","RA_OF_ASC_NODE":"346.8687","MEAN_MOTION_DDOT":"0.0000000000000","BSTAR":"0.00002899100000","DECAY_DATE":null,"MEAN_ANOMALY":"274.6816","COUNTRY_CODE":"US","PERIOD":"95.592","SEMIMAJOR_AXIS":"6925.351","MEAN_ELEMENT_THEORY":"SGP4","NORAD_CAT_ID":"44736","SITE":"AFETR","APOAPSIS":"548.080","MEAN_MOTION":"15.06399156","TIME_SYSTEM":"UTC","ELEMENT_SET_NO":"999","FILE":"3528364","OBJECT_ID":"2019-074Z","GP_ID":"209490392","CLASSIFICATION_TYPE":"U","TLE_LINE1":"1 44736U 19074Z   22215.36349844  .00000150  00000-0  28991-4 0  9997","OBJECT_TYPE":"PAYLOAD","TLE_LINE2":"2 44736  53.0563 346.8687 0001247  85.4316 274.6816 15.06399156150376","CENTER_NAME":"EARTH","PERIAPSIS":"546.353","OBJECT_NAME":"STARLINK-1031","RCS_SIZE":"LARGE"},{"SITE":"AFETR","NORAD_CAT_ID":"44737","MEAN_ELEMENT_THEORY":"SGP4","FILE":"3528364","OBJECT_ID":"2019-074AA","ELEMENT_SET_NO":"999","MEAN_MOTION":"15.06395454","APOAPSIS":"548.145","TIME_SYSTEM":"UTC","PERIOD":"95.592","SEMIMAJOR_AXIS":"6925.362","OBJECT_NAME":"STARLINK-1032","CENTER_NAME":"EARTH","PERIAPSIS":"546.310","TLE_LINE2":"2 44737  53.0555 346.2187 0001325  76.3055 283.8082 15.06395454150399","RCS_SIZE":"LARGE","GP_ID":"209490642","OBJECT_TYPE":"PAYLOAD","TLE_LINE1":"1 44737U 19074AA  22215.50725031  .00000045  00000-0  21890-4 0  9994","CLASSIFICATION_TYPE":"U","ECCENTRICITY":"0.00013250","MEAN_MOTION_DOT":"0.00000045","REF_FRAME":"TEME","EPHEMERIS_TYPE":"0","INCLINATION":"53.0555","ARG_OF_PERICENTER":"76.3055","EPOCH":"2022-08-03T12:10:26.426784","LAUNCH_DATE":"2019-11-11","COUNTRY_CODE":"US","MEAN_ANOMALY":"283.8082","RA_OF_ASC_NODE":"346.2187","REV_AT_EPOCH":"15039","BSTAR":"0.00002189000000","DECAY_DATE":null,"MEAN_MOTION_DDOT":"0.0000000000000"},{"TIME_SYSTEM":"UTC","APOAPSIS":"548.060","MEAN_MOTION":"15.06406619","FILE":"3528364","ELEMENT_SET_NO":"999","OBJECT_ID":"2019-074AB","MEAN_ELEMENT_THEORY":"SGP4","NORAD_CAT_ID":"44738","SITE":"AFETR","PERIOD":"95.592","SEMIMAJOR_AXIS":"6925.328","RCS_SIZE":"LARGE","PERIAPSIS":"546.327","CENTER_NAME":"EARTH","TLE_LINE2":"2 44738  53.0563 346.2891 0001251  85.8140 274.2992 15.06406619150388","OBJECT_NAME":"STARLINK-1033","TLE_LINE1":"1 44738U 19074AB  22215.49249930  .00000571  00000-0  57224-4 0  9996","CLASSIFICATION_TYPE":"U","OBJECT_TYPE":"PAYLOAD","GP_ID":"209491893","EPHEMERIS_TYPE":"0","INCLINATION":"53.0563","MEAN_MOTION_DOT":"0.00000571","REF_FRAME":"TEME","ECCENTRICITY":"0.00012510","LAUNCH_DATE":"2019-11-11","EPOCH":"2022-08-03T11:49:11.939520","ARG_OF_PERICENTER":"85.8140","MEAN_ANOMALY":"274.2992","COUNTRY_CODE":"US","DECAY_DATE":null,"BSTAR":"0.00005722400000","MEAN_MOTION_DDOT":"0.0000000000000","RA_OF_ASC_NODE":"346.2891","REV_AT_EPOCH":"15038"},{"PERIAPSIS":"516.439","CENTER_NAME":"EARTH","TLE_LINE2":"2 44739  52.9961 332.5257 0001532 110.2914 249.8243 15.16148591150534","OBJECT_NAME":"STARLINK-1034","RCS_SIZE":"LARGE","GP_ID":"209491592","TLE_LINE1":"1 44739U 19074AC  22215.50930098  .00008777  00000-0  46496-3 0  9995","CLASSIFICATION_TYPE":"U","OBJECT_TYPE":"PAYLOAD","MEAN_ELEMENT_THEORY":"SGP4","SITE":"AFETR","NORAD_CAT_ID":"44739","APOAPSIS":"518.552","MEAN_MOTION":"15.16148591","TIME_SYSTEM":"UTC","FILE":"3528364","OBJECT_ID":"2019-074AC","ELEMENT_SET_NO":"999","PERIOD":"94.977","SEMIMAJOR_AXIS":"6895.631","MEAN_ANOMALY":"249.8243","COUNTRY_CODE":"US","REV_AT_EPOCH":"15053","RA_OF_ASC_NODE":"332.5257","BSTAR":"0.00046496000000","DECAY_DATE":null,"MEAN_MOTION_DDOT":"0.0000000000000","ECCENTRICITY":"0.00015320","EPHEMERIS_TYPE":"0","INCLINATION":"52.9961","MEAN_MOTION_DOT":"0.00008777","REF_FRAME":"TEME","ARG_OF_PERICENTER":"110.2914","LAUNCH_DATE":"2019-11-11","EPOCH":"2022-08-03T12:13:23.604672"},{"MEAN_MOTION_DDOT":"0.0000000000000","DECAY_DATE":null,"BSTAR":"0.00000158000000","RA_OF_ASC_NODE":"346.8371","REV_AT_EPOCH":"15037","COUNTRY_CODE":"US","MEAN_ANOMALY":"287.7733","EPOCH":"2022-08-03T08:54:03.530016","LAUNCH_DATE":"2019-11-11","ARG_OF_PERICENTER":"72.3410","REF_FRAME":"TEME","MEAN_MOTION_DOT":"-0.00000258","EPHEMERIS_TYPE":"0","INCLINATION":"53.0543","ECCENTRICITY":"0.00014080","OBJECT_TYPE":"PAYLOAD","CLASSIFICATION_TYPE":"U","TLE_LINE1":"1 44740U 19074AD  22215.37087419 -.00000258  00000-0  15800-5 0  9996","GP_ID":"209490893","RCS_SIZE":"LARGE","OBJECT_NAME":"STARLINK-1035","TLE_LINE2":"2 44740  53.0543 346.8371 0001408  72.3410 287.7733 15.06389689150371","PERIAPSIS":"546.270","CENTER_NAME":"EARTH","PERIOD":"95.593","SEMIMAJOR_AXIS":"6925.380","FILE":"3528364","ELEMENT_SET_NO":"999","OBJECT_ID":"2019-074AD","APOAPSIS":"548.220","MEAN_MOTION":"15.06389689","TIME_SYSTEM":"UTC","SITE":"AFETR","NORAD_CAT_ID":"44740","MEAN_ELEMENT_THEORY":"SGP4"},{"GP_ID":"209468751","OBJECT_TYPE":"PAYLOAD","TLE_LINE1":"1 44741U 19074AE  22215.51462069  .00000040  00000-0  21573-4 0  9992","CLASSIFICATION_TYPE":"U","OBJECT_NAME":"STARLINK-1036","PERIAPSIS":"546.414","CENTER_NAME":"EARTH","TLE_LINE2":"2 44741  53.0568 346.1801 0001176  89.5103 270.6020 15.06395159150561","RCS_SIZE":"LARGE","PERIOD":"95.592","SEMIMAJOR_AXIS":"6925.363","NORAD_CAT_ID":"44741","SITE":"AFETR","MEAN_ELEMENT_THEORY":"SGP4","FILE":"3528221","ELEMENT_SET_NO":"999","OBJECT_ID":"2019-074AE","APOAPSIS":"548.043","TIME_SYSTEM":"UTC","MEAN_MOTION":"15.06395159","REV_AT_EPOCH":"15056","RA_OF_ASC_NODE":"346.1801","DECAY_DATE":null,"BSTAR":"0.00002157300000","MEAN_MOTION_DDOT":"0.0000000000000","COUNTRY_CODE":"US","MEAN_ANOMALY":"270.6020","ARG_OF_PERICENTER":"89.5103","EPOCH":"2022-08-03T12:21:03.227616","LAUNCH_DATE":"2019-11-11","ECCENTRICITY":"0.00011760","MEAN_MOTION_DOT":"0.00000040","REF_FRAME":"TEME","EPHEMERIS_TYPE":"0","INCLINATION":"53.0568"},{"OBJECT_TYPE":"PAYLOAD","TLE_LINE1":"1 44742U 19074AF  22215.52697059  .00010841  00000-0  54833-3 0  9997","CLASSIFICATION_TYPE":"U","GP_ID":"209491394","RCS_SIZE":"LARGE","OBJECT_NAME":"STARLINK-1037","CENTER_NAME":"EARTH","PERIAPSIS":"512.833","TLE_LINE2":"2 44742  52.9961 326.5594 0000637 119.6811 240.4246 15.17542776150623","PERIOD":"94.890","SEMIMAJOR_AXIS":"6891.407","FILE":"3528364","ELEMENT_SET_NO":"999","OBJECT_ID":"2019-074AF","APOAPSIS":"513.711","MEAN_MOTION":"15.17542776","TIME_SYSTEM":"UTC","SITE":"AFETR","NORAD_CAT_ID":"44742","MEAN_ELEMENT_THEORY":"SGP4","DECAY_DATE":null,"BSTAR":"0.00054833000000","MEAN_MOTION_DDOT":"0.0000000000000","RA_OF_ASC_NODE":"326.5594","REV_AT_EPOCH":"15062","COUNTRY_CODE":"US","MEAN_ANOMALY":"240.4246","EPOCH":"2022-08-03T12:38:50.258976","LAUNCH_DATE":"2019-11-11","ARG_OF_PERICENTER":"119.6811","MEAN_MOTION_DOT":"0.00010841","REF_FRAME":"TEME","EPHEMERIS_TYPE":"0","INCLINATION":"52.9961","ECCENTRICITY":"0.00006370"}];
